#dP2023  3 29 18  0  0.00000000      96 __u+U ITR00 EXT  IAC
## 2255 324000.00000000   900.00000000 60032 0.7500000000000
+  120   C06C07C08C09C10C11C12C13C14C16C19C20C21C22C23C24C25
+        C26C27C28C29C30C32C33C34C35C36C37C38C39C40C41C42C43
+        C44C45C46E01E02E03E04E05E07E08E09E10E11E12E13E14E15
+        E18E19E21E24E25E26E27E30E31E33E34E36G01G02G03G04G05
+        G06G07G08G09G10G11G12G13G14G15G16G17G18G19G20G21G22
+        G23G24G25G26G27G28G29G30G31G32J02J03J04R01R02R03R04
+        R05R07R08R09R11R12R13R14R15R16R17R18R19R20R21R22R24
+        R25  0  0  0  0  0  0  0  0  0  0  0  0  0  0  0  0
++        10  9 11 11  9  8  9 10  8 10  7  9  8  7  9  7  7
++         8  9  9  9  9  9  8  9  9  8  9 10 12 10  9  8  8
++         9  9 10  7  7  8  7  7  6  7  7  7  8  6  8  7  7
++         7  9  7  6  6  6  8  7  8  7  9  8  7  7  7  7  7
++         8  6  7  8  8  7  7  7  6  6  7  7  6  5  8  7  7
++         7  7  6  7  7  9  7  8  8  6 11  9  9  8  7  8  7
++         8  9  8  7  8  7  8  8  8  9  8  8 10  9  8  7  7
++         6  0  0  0  0  0  0  0  0  0  0  0  0  0  0  0  0
%c M  cc GPS ccc cccc cccc cccc cccc ccccc ccccc ccccc ccccc
%c cc cc ccc ccc cccc cccc cccc cccc ccccc ccccc ccccc ccccc
%f  0.0000000  0.000000000  0.00000000000  0.000000000000000
%f  0.0000000  0.000000000  0.00000000000  0.000000000000000
%i    0    0    0    0      0      0      0      0         0
%i    0    0    0    0      0      0      0      0         0
/* IAC                                ULTRA-RAPID PREDICTION
/* S/V CLOCKS ARE ALIGNED TO GNSS TIME                      
/* G:C1WC2W R:C1PC2P E:C1XC5X C:C2IC6I J:C1CC2S             
/* PCV:IGS20_2247 OL/AL:FES2004  NONE     YN ORB:CoN CLK:CoN
*  2023 03 29 19 15  0.00000000
PC06  -1707.204677  33040.020303  26318.867034   -197.080640
PC07 -15893.997362  26964.975615 -28278.518635    -92.633988
PC08 -15381.597454  38784.008405   5404.712496    512.790671
PC09   5103.186808  37465.776605  19626.954205    826.619795
PC10  -7544.004257  27661.196307 -30736.461644    -20.628894
PC11 -17694.954918 -21539.176867   1526.904690    733.206697
PC12  -3874.486316 -21465.978969  17440.206948    537.581715
PC13  -9958.365549  39237.816206  11485.305958    240.824520
PC14 -15525.079259 -10753.667625 -20541.775325     54.630078
PC16  -3600.431547  31274.505168  28411.856481    124.782305
PC19  23158.214738   4832.859435  14813.230927   -897.985575
PC20   7111.126175  14337.498827  22876.539119    654.070363
PC21  14516.541572 -15893.078888 -17723.686589   -908.958618
PC22  26645.371953  -7922.623754  -2256.634360   -561.676120
PC23 -17515.502318   9970.364049  19299.398840   -896.030585
PC24   -920.254183 -25471.919076  11373.523036   -234.987227
PC25 -13886.744866  -9657.682475  22186.740825     96.549826
PC26  10337.306260 -25555.584873  -4469.524639    -98.835192
PC27  -4216.522835  17395.083976 -21435.423599    117.824673
PC28 -17818.869407   2540.662161 -21323.201251     86.536542
PC29  22396.908079  14666.838499   7879.135923    100.079045
PC30  12560.883133  22731.715899 -10254.381405      0.655326
PC32 -14468.639950  16030.673831  17705.916133   -589.295366
PC33 -23175.875945  -4720.593217 -14816.080945   -871.537947
PC34 -13508.969801 -22640.671285   9092.655091    137.355062
PC35  18367.860868  -2256.949263  20888.005818    655.653889
PC36  13329.706087  10708.633666 -22034.913386   -533.666573
PC37 -11640.958241  24701.154659   5703.873302   -795.855513
PC38 -19185.230015  37317.776907  -3300.108719     68.249777
PC39  -7377.255868  27039.502939  31611.567449     -2.359702
PC40 -21583.032694  20483.905189 -29982.826869    -18.897132
PC41 -26778.227918   7699.841007   1703.463638   -784.337943
PC42  -5726.448679 -14776.222263 -22921.791202   -762.593109
PC43 -22242.963482 -15251.239511  -7127.283632     14.142800
PC44   3871.339381 -17469.812513  21390.435961     59.587198
PC45  17408.278654 -10474.807063 -19144.678243    -78.408496
PC46   2079.608381  24687.935498 -12811.100468    -43.302422
PE01  10464.533907 -23170.250940  15159.695810    -10.302457
PE02 -10008.611031  23115.290791 -15540.908415     29.241429
PE03    637.549440  17726.896792  23697.717316   -664.015829
PE04 -20412.263089 -16641.280268 -13501.515065    -89.103148
PE05 -19978.973066   8394.916542  20171.785107    -81.781298
PE07  28623.622747   5853.516402  -4714.419689    -33.603482
PE08  20272.081992  16606.974756  13758.140551    -58.980448
PE09 -28642.588358  -5942.040791   4580.015641   -886.337645
PE10 -15750.380792 -17134.754999 -18292.950578   -522.650106
PE11 -16866.549499  -5806.299607 -23625.617768   1423.612834
PE12 -12281.808266 -24744.302096 -10599.131451   -477.747387
PE13  16833.774248   6786.929800  23388.942795    -18.116065
PE14  22217.689765   3102.694505   7583.764765    182.261146
PE15  12140.956661  24964.739654  10299.106346    -10.868562
PE18 -28394.246994   1068.377989 -15654.051770   -226.529374
PE19   2388.853058 -16891.215353 -24177.920198  -2891.005566
PE21  22648.418914 -19018.829948  -1302.470079   -520.342551
PE24      0.000000      0.000000      0.000000  -1191.509365
PE25 -22768.052967  18840.292134   1613.011520   -602.277333
PE26  11395.248048 -15943.637551  22185.073909     59.836482
PE27  22974.668127  -3675.461720 -18309.638479    -12.205624
PE30   9213.412199  14201.328092 -24296.614129    -50.469670
PE31  -9759.079127 -13687.037246  24364.006018   -519.880387
PE33   -305.474626 -28258.082284   8782.222025   -447.739407
PE34    463.415499  28311.963925  -8632.938759    -37.468275
PE36 -11605.823063  15165.835780 -22618.221728    -33.521125
PG01  13675.387397  -5371.611248  21770.799434    198.050375
PG02 -12052.630542  10564.291907 -20608.687106   -610.608797
PG03  22500.543057 -11892.421233   7257.210334   -340.567787
PG04  21588.913910  -2432.906162 -15344.379966      4.304986
PG05 -18414.992850  -1535.207206 -19291.816292   -121.370203
PG06  -5232.636008 -25896.917963  -2065.214350    584.465546
PG07   8083.943619 -19500.686664 -15371.182237    212.855545
PG08  25736.947402   5898.501219   4363.752202   -115.267278
PG09  12548.684312 -11040.049621 -20722.730906   -190.827956
PG10  -4911.599416  19285.670191  17609.946991    -30.599412
PG11 -12227.478694 -18388.969158 -14773.158683   -145.503160
PG12 -23282.097496   8792.334158   8861.628447   -357.507689
PG13 -22912.953134 -13610.276139  -1203.122145    497.937409
PG14   8150.505929 -19989.825392  15387.685849      9.659465
PG15 -26140.517565  -2920.010770   4155.285620     25.926520
PG16  16580.068903   5826.124027 -20350.209064   -512.412498
PG17  -1816.119379 -16561.645068  21092.034663    708.020918
PG18  -5817.507288  22345.300372 -12993.585786   -201.038894
PG19 -12189.345481 -17935.990000  15296.414979    296.612728
PG20 -11424.830374 -10460.665066 -21542.226351    442.042966
PG21  16320.063020   4259.896292  21262.095084    154.321419
PG22  14843.265058  17736.418096  13649.948776    454.500083
PG23 -15172.250710  20188.349637   7987.261361     13.468765
PG24 -15752.349577   1057.129829  21033.584004   -131.273168
PG25 -20170.966260  17049.917395   -378.460177    431.566636
PG26   6037.542961  15398.591313 -20841.630171    241.953651
PG27  22463.268760  13241.686466  -6353.537020     70.329607
PG28   5142.499381  26060.836546   -120.760314     54.808308
PG29 -16467.547028   6919.201133 -19734.026636   -593.163269
PG30     30.969572 -25885.811331  -5177.214112   -524.814636
PG31   8158.282797  24123.897713  -6872.856804   -212.763507
PG32   5931.314333  17011.739587  19755.785932   -437.240885
PJ02 -35511.750671  22589.295755   1970.293809     -1.343019
PJ03 -20741.341604  22246.140874 -24608.390949      1.523912
PJ04 -28332.137139  30271.223668  13925.607758     94.150049
PR01  24035.559027  -5103.746657  -6815.061329     25.687250
PR02  10471.608348 -10232.891076 -20855.266508    -23.041734
PR03  -8887.803117  -9834.815314 -21730.049777     75.078300
PR04 -22838.930530  -3951.593679 -10604.578118    181.287221
PR05 -24388.242120   3944.518072   6322.644637    110.118540
PR07   9800.590179   9695.911531  21517.935254     52.745380
PR08  22949.944704   3857.499462  10541.263412    -70.131623
PR09 -10436.356868  23284.785038  -1289.281485    111.850163
PR11   9635.485395   5164.841493 -23039.524226    -26.656114
PR12  15105.768007 -13590.317935 -15411.506124     26.038775
PR13  11457.214266 -22785.748570   -566.726617    -33.423283
PR14    260.311274 -19039.006026  16971.454326     24.478781
PR15 -10297.100591  -4117.631851  22985.147321     90.139835
PR16 -14910.482716  13457.312904  15748.064569     12.935824
PR17 -11664.900191 -22217.897995   4676.685377    616.571242
PR18 -16131.148335 -15768.095609 -11838.731904     73.914253
PR19 -12907.659190  -2867.115904 -21814.131524   -227.110510
PR20   -777.511369  16076.277880 -19800.752902    -90.189516
PR21  12346.546764  22115.085047  -2950.777023   -384.035292
PR22  15832.655396  15606.783535  12550.254748     77.019967
PR24    173.575086 -16699.712952  19298.289149    157.716702
PR25  10427.705613  22755.928334  -4869.619310     59.108408
EOF
